NORAD_CAT_ID,OBJECT_NAME,OBJECT_TYPE,EPOCH,MEAN_MOTION,ECCENTRICITY,INCLINATION,RA_OF_ASC_NODE,ARG_OF_PERICENTER,MEAN_ANOMALY,BSTAR,MEAN_MOTION_DOT,MEAN_MOTION_DDOT,TLE_LINE0,TLE_LINE1,TLE_LINE2,SEMIMAJOR_AXIS,PERIOD,APOGEE,PERIGEE,DECAYED
52585.0,STARLINK-3906,PAYLOAD,2022-05-28 04:00:00,15.73225059,0.0002341,53.2187,222.5774,29.4617,131.7409,5.0535e-05,6.484e-05,0.0,0 STARLINK-3906,1 52585U 22051BB  22148.16667824  .00006484  00000-0  50535-4 0  9996,2 52585  53.2187 222.5774 0002341  29.4617 131.7409 15.73225059  2782,6727.824000000001,91.532,351.264,348.11400000000015,0.0
52585.0,STARLINK-3906,PAYLOAD,2022-05-28 12:27:57,15.73212262,0.0002702,53.2184,220.8322,28.5684,331.5483,0.00016347,0.00022396,0.0,0 STARLINK-3906,1 52585U 22051BB  22148.51941967  .00022396  00000-0  16347-3 0  9990,2 52585  53.2184 220.8322 0002702  28.5684 331.5483 15.73212262  2777,6727.86,91.532,351.543,347.907,0.0
52585.0,STARLINK-3906,PAYLOAD,2022-05-28 20:05:21,15.73246519,0.0002578,53.2183,219.2609,27.7341,332.3816,0.00051452,0.00072365,0.0,0 STARLINK-3906,1 52585U 22051BB  22148.83705146  .00072365  00000-0  51452-3 0  9999,2 52585  53.2183 219.2609 0002578  27.7341 332.3816 15.73246519  2825,6727.763000000001,91.53,351.362,347.89300000000014,0.0
52585.0,STARLINK-3906,PAYLOAD,2022-05-29 04:00:00,15.73230458,0.0002299,53.2181,217.6294,23.9446,44.0976,-0.0002165,-0.00030938,0.0,0 STARLINK-3906,1 52585U 22051BB  22149.16667824 -.00030938  00000-0 -21650-3 0  9995,2 52585  53.2181 217.6294 0002299  23.9446  44.0976 15.73230458  2941,6727.808000000001,91.531,351.22,348.12699999999984,0.0
52585.0,STARLINK-3906,PAYLOAD,2022-05-29 14:00:01,15.73168196,0.0002554,53.2182,215.5703,19.7107,249.4982,-0.00038352,-0.00054038,0.0,0 STARLINK-3906,1 52585U 22051BB  22149.58334491 -.00054038  00000-0 -38352-3 0  9996,2 52585  53.2182 215.5703 0002554  19.7107 249.4982 15.73168196  3000,6727.986,91.535,351.569,348.1330000000001,0.0
52585.0,STARLINK-3906,PAYLOAD,2022-05-29 22:00:00,15.73118536,0.0002375,53.2182,213.9192,15.948,342.1534,0.0001312,0.00017769,0.0,0 STARLINK-3906,1 52585U 22051BB  22149.91667824  .00017769  00000-0  13120-3 0  9996,2 52585  53.2182 213.9192 0002375  15.9480 342.1534 15.73118536  1305,6728.127,91.538,351.59,348.395,0.0
52585.0,STARLINK-3906,PAYLOAD,2022-05-30 06:00:00,15.73140216,0.0002418,53.2183,212.2699,18.5005,68.4262,0.00050837,0.00071155,0.0,0 STARLINK-3906,1 52585U 22051BB  22150.25001157  .00071155  00000-0  50837-3 0  9991,2 52585  53.2183 212.2699 0002418  18.5005  68.4262 15.73140216  3117,6728.066,91.537,351.557,348.30400000000014,0.0
52585.0,STARLINK-3906,PAYLOAD,2022-05-30 12:00:00,15.7316139,0.0002684,53.2179,211.0346,18.9516,44.6173,0.00047959,0.00067122,0.0,0 STARLINK-3906,1 52585U 22051BB  22150.50001157  .00067122  00000-0  47959-3 0  9999,2 52585  53.2179 211.0346 0002684  18.9516  44.6173 15.73161390  3151,6728.005,91.535,351.676,348.064,0.0
52585.0,STARLINK-3906,PAYLOAD,2022-05-30 13:15:22,15.73155512,0.0002542,53.2174,210.7728,14.5754,345.5339,0.0001705,0.00023331,0.0,0 STARLINK-3906,1 52585U 22051BB  22150.55234224  .00023331  00000-0  17050-3 0  9990,2 52585  53.2174 210.7728 0002542  14.5754 345.5339 15.73155512  3094,6728.022,91.536,351.597,348.177,0.0
52585.0,STARLINK-3906,PAYLOAD,2022-05-30 22:00:00,15.73223499,0.0002546,53.2174,208.9713,20.9477,243.7706,0.00017847,0.00024526,0.0,0 STARLINK-3906,1 52585U 22051BB  22150.91667824  .00024526  00000-0  17847-3 0  9997,2 52585  53.2174 208.9713 0002546  20.9477 243.7706 15.73223499  1303,6727.828,91.532,351.406,347.98,0.0
52585.0,STARLINK-3906,PAYLOAD,2022-05-31 04:30:10,15.73231994,0.0002188,53.2173,207.6305,22.4477,337.6638,0.00031355,0.00043676,0.0,0 STARLINK-3906,1 52585U 22051BB  22151.18762009  .00043676  00000-0  31355-3 0  9995,2 52585  53.2173 207.6305 0002188  22.4477 337.6638 15.73231994  3267,6727.804,91.531,351.141,348.19699999999995,0.0
52585.0,STARLINK-3906,PAYLOAD,2022-05-31 06:00:02,15.73253747,0.0002568,53.2175,207.3219,25.2113,328.5308,-0.00038382,-0.00054276,0.0,0 STARLINK-3906,1 52585U 22051BB  22151.25002315 -.00054276  00000-0 -38382-3 0  9997,2 52585  53.2175 207.3219 0002568  25.2113 328.5308 15.73253747  1306,6727.7419999999975,91.53,351.335,347.879,0.0
52585.0,STARLINK-3906,PAYLOAD,2022-05-31 14:00:01,15.73186781,0.0002841,53.2174,205.6743,24.1445,58.4991,0.00062471,0.00087937,0.0,0 STARLINK-3906,1 52585U 22051BB  22151.58334491  .00087937  00000-0  62471-3 0  9990,2 52585  53.2174 205.6743 0002841  24.1445  58.4991 15.73186781  3322,6727.933000000001,91.534,351.709,347.886,0.0
52585.0,STARLINK-3906,PAYLOAD,2022-05-31 22:00:00,15.73254136,0.0002671,53.2176,204.0228,23.0189,148.5927,-0.00032088,-0.00045526,0.0,0 STARLINK-3906,1 52585U 22051BB  22151.91667824 -.00045526  00000-0 -32088-3 0  9997,2 52585  53.2176 204.0228 0002671  23.0189 148.5927 15.73254136  1305,6727.741,91.53,351.403,347.809,0.0
52585.0,STARLINK-3906,PAYLOAD,2022-06-01 06:00:00,15.73235928,0.0002663,53.2177,202.3736,22.8685,237.7023,7.188e-05,9.494e-05,0.0,0 STARLINK-3906,1 52585U 22051BB  22152.25001157  .00009494  00000-0  71880-4 0  9992,2 52585  53.2177 202.3736 0002663  22.8685 237.7023 15.73235928  3421,6727.793000000002,91.531,351.449,347.866,0.0
52585.0,STARLINK-3906,PAYLOAD,2022-06-01 20:00:01,15.73205944,0.0002687,53.2169,199.487,19.2881,306.9693,7.7372e-05,0.00010254,0.0,0 STARLINK-3906,1 52585U 22051BB  22152.83334491  .00010254  00000-0  77372-4 0  9994,2 52585  53.2169 199.4870 0002687  19.2881 306.9693 15.73205944  3518,6727.878000000002,91.533,351.551,347.935,0.0
52585.0,STARLINK-3906,PAYLOAD,2022-06-03 02:38:13,15.73195134,0.0003033,53.2182,193.1684,25.663,334.454,-2.5721e-06,-9.84e-06,0.0,0 STARLINK-3906,1 52585U 22051BB  22154.10988371 -.00000984  00000-0 -25721-5 0  9991,2 52585  53.2182 193.1684 0003033  25.6630 334.4540 15.73195134  3725,6727.909000000002,91.533,351.815,347.733,0.0
52585.0,STARLINK-3906,PAYLOAD,2022-06-03 11:46:58,15.73271332,0.0002494,53.2175,191.2816,16.7199,343.3903,-9.8735e-05,-0.000145,0.0,0 STARLINK-3906,1 52585U 22051BB  22154.49095547 -.00014500  00000-0 -98735-4 0  9990,2 52585  53.2175 191.2816 0002494  16.7199 343.3903 15.73271332  3787,6727.691999999999,91.529,351.235,347.879,0.0
52585.0,STARLINK-3906,PAYLOAD,2022-06-03 14:49:56,15.73290686,0.0002167,53.2172,190.6536,26.9836,333.1297,-2.372e-05,-3.963e-05,0.0,0 STARLINK-3906,1 52585U 22051BB  22154.61801166 -.00003963  00000-0 -23720-4 0  9999,2 52585  53.2172 190.6536 0002167  26.9836 333.1297 15.73290686  3735,6727.637,91.528,350.96,348.0440000000001,0.0
52585.0,STARLINK-3906,PAYLOAD,2022-06-05 22:00:00,15.73144004,0.0002646,53.2177,179.2804,14.4483,51.3531,0.0003759,0.00052343,0.0,0 STARLINK-3906,1 52585U 22051BB  22156.91667824  .00052343  00000-0  37590-3 0  9998,2 52585  53.2177 179.2804 0002646  14.4483  51.3531 15.73144004  4163,6728.055,91.536,351.7,348.14,0.0
52585.0,STARLINK-3906,PAYLOAD,2022-06-06 14:00:01,15.73202222,0.0002943,53.2164,175.9838,14.1192,229.4874,0.00030734,0.00042742,0.0,0 STARLINK-3906,1 52585U 22051BB  22157.58334491  .00042742  00000-0  30734-3 0  9998,2 52585  53.2164 175.9838 0002943  14.1192 229.4874 15.73202222  1301,6727.889,91.533,351.7340000000001,347.774,0.0
52585.0,STARLINK-3906,PAYLOAD,2022-06-06 22:00:00,15.73228831,0.0002776,53.2163,174.3322,18.0361,314.5241,-2.8314e-06,-1.021e-05,0.0,0 STARLINK-3906,1 52585U 22051BB  22157.91667824 -.00001021  00000-0 -28314-5 0  9994,2 52585  53.2163 174.3322 0002776  18.0361 314.5241 15.73228831  4318,6727.813,91.532,351.546,347.81,0.0
52585.0,STARLINK-3906,PAYLOAD,2022-06-07 14:00:01,15.73258697,0.0003086,53.2162,171.0352,20.1638,130.3111,-0.00056618,-0.00079557,0.0,0 STARLINK-3906,1 52585U 22051BB  22158.58334491 -.00079557  00000-0 -56618-3 0  9994,2 52585  53.2162 171.0352 0003086  20.1638 130.3111 15.73258697  1309,6727.728,91.53,351.6690000000001,347.517,0.0
52585.0,STARLINK-3906,PAYLOAD,2022-06-07 22:00:00,15.73193783,0.0002719,53.2162,169.3837,18.3129,221.1405,0.00020305,0.00027966,0.0,0 STARLINK-3906,1 52585U 22051BB  22158.91667824  .00027966  00000-0  20305-3 0  9999,2 52585  53.2162 169.3837 0002719  18.3129 221.1405 15.73193783  1302,6727.913000000001,91.534,351.607,347.949,0.0
52585.0,STARLINK-3906,PAYLOAD,2022-06-08 06:00:02,15.73185314,0.0002859,53.2163,167.7358,16.6153,311.8438,-5.824300000000001e-05,-8.785e-05,0.0,0 STARLINK-3906,1 52585U 22051BB  22159.25002315 -.00008785  00000-0 -58243-4 0  9998,2 52585  53.2163 167.7358 0002859  16.6153 311.8438 15.73185314  4527,6727.937,91.534,351.726,347.879,0.0
52585.0,STARLINK-3906,PAYLOAD,2022-06-08 14:00:01,15.73208461,0.0002957,53.216,166.0867,13.4718,43.816,-1.532e-05,-2.774e-05,0.0,0 STARLINK-3906,1 52585U 22051BB  22159.58334491 -.00002774  00000-0 -15320-4 0  9998,2 52585  53.2160 166.0867 0002957  13.4718  43.8160 15.73208461  1308,6727.871,91.533,351.725,347.747,0.0
52585.0,STARLINK-3906,PAYLOAD,2022-06-08 22:00:01,15.73150002,0.0002681,53.2164,164.4352,12.9688,133.3199,0.00029794,0.00041314,0.0,0 STARLINK-3906,1 52585U 22051BB  22159.91668981  .00041314  00000-0  29794-3 0  9999,2 52585  53.2164 164.4352 0002681  12.9688 133.3199 15.73150002  1301,6728.038000000001,91.536,351.707,348.099,0.0
52585.0,STARLINK-3906,PAYLOAD,2022-06-09 14:00:01,15.7316522,0.000293,53.2161,161.1382,9.2224,314.7965,-9.6566e-05,-0.00014135,0.0,0 STARLINK-3906,1 52585U 22051BB  22160.58334491 -.00014135  00000-0 -96566-4 0  9995,2 52585  53.2161 161.1382 0002930   9.2224 314.7965 15.73165220  1301,6727.994000000002,91.535,351.831,347.88800000000015,0.0
52585.0,STARLINK-3906,PAYLOAD,2022-06-09 22:00:00,15.73146521,0.0002667,53.2162,159.4871,11.0022,41.9091,0.00057284,0.0008037,0.0,0 STARLINK-3906,1 52585U 22051BB  22160.91667824  .00080370  00000-0  57284-3 0  9996,2 52585  53.2162 159.4871 0002667  11.0022  41.9091 15.73146521  1301,6728.0480000000025,91.536,351.707,348.11800000000005,0.0
